CCSDS_OMM_VERS = 2.0
CREATION_DATE  = 
ORIGINATOR     = 

OBJECT_NAME    = SL-3 R/B
OBJECT_ID      = 1982-079B
CENTER_NAME    = EARTH
REF_FRAME      = TEME
TIME_SYSTEM    = UTC
MEAN_ELEMENT_THEORY = SGP/SGP4

EPOCH          = 2026-04-03T14:25:12.074880
MEAN_MOTION    = 15.25140832
ECCENTRICITY   = .00254507
INCLINATION    = 81.1476
RA_OF_ASC_NODE = 163.6618
ARG_OF_PERICENTER = 83.1282
MEAN_ANOMALY   = 277.2846

EPHEMERIS_TYPE = 0
CLASSIFICATION_TYPE = U
NORAD_CAT_ID   = 13403
ELEMENT_SET_NO = 999
REV_AT_EPOCH   = 38149
BSTAR          = .39118108E-3
MEAN_MOTION_DOT = .9921E-4
MEAN_MOTION_DDOT = 0

CCSDS_OMM_VERS = 2.0
CREATION_DATE  = 
ORIGINATOR     = 

OBJECT_NAME    = SL-14 R/B
OBJECT_ID      = 1982-092B
CENTER_NAME    = EARTH
REF_FRAME      = TEME
TIME_SYSTEM    = UTC
MEAN_ELEMENT_THEORY = SGP/SGP4

EPOCH          = 2026-04-03T13:21:35.665920
MEAN_MOTION    = 14.86690469
ECCENTRICITY   = .00193938
INCLINATION    = 82.5651
RA_OF_ASC_NODE = 118.1350
ARG_OF_PERICENTER = 215.0194
MEAN_ANOMALY   = 259.5108

EPHEMERIS_TYPE = 0
CLASSIFICATION_TYPE = U
NORAD_CAT_ID   = 13553
ELEMENT_SET_NO = 999
REV_AT_EPOCH   = 33262
BSTAR          = .7761017E-4
MEAN_MOTION_DOT = .716E-5
MEAN_MOTION_DDOT = 0

CCSDS_OMM_VERS = 2.0
CREATION_DATE  = 
ORIGINATOR     = 

OBJECT_NAME    = SL-3 R/B
OBJECT_ID      = 1983-010B
CENTER_NAME    = EARTH
REF_FRAME      = TEME
TIME_SYSTEM    = UTC
MEAN_ELEMENT_THEORY = SGP/SGP4

EPOCH          = 2026-04-03T09:47:51.709632
MEAN_MOTION    = 15.47213941
ECCENTRICITY   = .00154948
INCLINATION    = 81.1036
RA_OF_ASC_NODE = 331.9260
ARG_OF_PERICENTER = 325.1669
MEAN_ANOMALY   = 34.8560

EPHEMERIS_TYPE = 0
CLASSIFICATION_TYPE = U
NORAD_CAT_ID   = 13819
ELEMENT_SET_NO = 999
REV_AT_EPOCH   = 36176
BSTAR          = .47091848E-3
MEAN_MOTION_DOT = .24125E-3
MEAN_MOTION_DDOT = 0

CCSDS_OMM_VERS = 2.0
CREATION_DATE  = 
ORIGINATOR     = 

OBJECT_NAME    = SL-3 R/B
OBJECT_ID      = 1983-075B
CENTER_NAME    = EARTH
REF_FRAME      = TEME
TIME_SYSTEM    = UTC
MEAN_ELEMENT_THEORY = SGP/SGP4

EPOCH          = 2026-04-03T14:15:39.328416
MEAN_MOTION    = 15.39039740
ECCENTRICITY   = .00227703
INCLINATION    = 97.6134
RA_OF_ASC_NODE = 99.1257
ARG_OF_PERICENTER = 137.0234
MEAN_ANOMALY   = 223.2795

EPHEMERIS_TYPE = 0
CLASSIFICATION_TYPE = U
NORAD_CAT_ID   = 14208
ELEMENT_SET_NO = 999
REV_AT_EPOCH   = 33398
BSTAR          = .45715673E-3
MEAN_MOTION_DOT = .17764E-3
MEAN_MOTION_DDOT = 0

CCSDS_OMM_VERS = 2.0
CREATION_DATE  = 
ORIGINATOR     = 

OBJECT_NAME    = COSMOS 1536
OBJECT_ID      = 1984-013A
CENTER_NAME    = EARTH
REF_FRAME      = TEME
TIME_SYSTEM    = UTC
MEAN_ELEMENT_THEORY = SGP/SGP4

EPOCH          = 2026-04-03T11:21:45.981504
MEAN_MOTION    = 15.24186980
ECCENTRICITY   = .00139716
INCLINATION    = 82.5419
RA_OF_ASC_NODE = 83.2004
ARG_OF_PERICENTER = 187.2704
MEAN_ANOMALY   = 172.8333

EPHEMERIS_TYPE = 0
CLASSIFICATION_TYPE = U
NORAD_CAT_ID   = 14699
ELEMENT_SET_NO = 999
REV_AT_EPOCH   = 27639
BSTAR          = .46277297E-3
MEAN_MOTION_DOT = .11335E-3
MEAN_MOTION_DDOT = 0

CCSDS_OMM_VERS = 2.0
CREATION_DATE  = 
ORIGINATOR     = 

OBJECT_NAME    = SL-14 R/B
OBJECT_ID      = 1984-027B
CENTER_NAME    = EARTH
REF_FRAME      = TEME
TIME_SYSTEM    = UTC
MEAN_ELEMENT_THEORY = SGP/SGP4

EPOCH          = 2026-04-03T14:35:12.411456
MEAN_MOTION    = 14.86005635
ECCENTRICITY   = .00165979
INCLINATION    = 82.5426
RA_OF_ASC_NODE = 221.6419
ARG_OF_PERICENTER = 249.2580
MEAN_ANOMALY   = 110.6858

EPHEMERIS_TYPE = 0
CLASSIFICATION_TYPE = U
NORAD_CAT_ID   = 14820
ELEMENT_SET_NO = 999
REV_AT_EPOCH   = 25133
BSTAR          = .99423757E-4
MEAN_MOTION_DOT = .894E-5
MEAN_MOTION_DDOT = 0

CCSDS_OMM_VERS = 2.0
CREATION_DATE  = 
ORIGINATOR     = 

OBJECT_NAME    = SL-8 R/B
OBJECT_ID      = 1985-006B
CENTER_NAME    = EARTH
REF_FRAME      = TEME
TIME_SYSTEM    = UTC
MEAN_ELEMENT_THEORY = SGP/SGP4

EPOCH          = 2026-04-03T15:03:17.172576
MEAN_MOTION    = 14.37802324
ECCENTRICITY   = .00174809
INCLINATION    = 74.0460
RA_OF_ASC_NODE = 215.2591
ARG_OF_PERICENTER = 125.6209
MEAN_ANOMALY   = 245.8835

EPHEMERIS_TYPE = 0
CLASSIFICATION_TYPE = U
NORAD_CAT_ID   = 15483
ELEMENT_SET_NO = 999
REV_AT_EPOCH   = 15761
BSTAR          = .16854965E-3
MEAN_MOTION_DOT = .483E-5
MEAN_MOTION_DDOT = 0

CCSDS_OMM_VERS = 2.0
CREATION_DATE  = 
ORIGINATOR     = 

OBJECT_NAME    = SL-12 R/B(2)
OBJECT_ID      = 1985-042D
CENTER_NAME    = EARTH
REF_FRAME      = TEME
TIME_SYSTEM    = UTC
MEAN_ELEMENT_THEORY = SGP/SGP4

EPOCH          = 2026-04-03T14:50:15.884160
MEAN_MOTION    = 14.21990140
ECCENTRICITY   = .00328351
INCLINATION    = 71.1099
RA_OF_ASC_NODE = 35.0595
ARG_OF_PERICENTER = 86.7279
MEAN_ANOMALY   = 85.6041

EPHEMERIS_TYPE = 0
CLASSIFICATION_TYPE = U
NORAD_CAT_ID   = 15772
ELEMENT_SET_NO = 999
REV_AT_EPOCH   = 11793
BSTAR          = .13141824E-3
MEAN_MOTION_DOT = .245E-5
MEAN_MOTION_DDOT = 0

CCSDS_OMM_VERS = 2.0
CREATION_DATE  = 
ORIGINATOR     = 

OBJECT_NAME    = SL-14 R/B
OBJECT_ID      = 1985-069B
CENTER_NAME    = EARTH
REF_FRAME      = TEME
TIME_SYSTEM    = UTC
MEAN_ELEMENT_THEORY = SGP/SGP4

EPOCH          = 2026-04-03T10:48:29.185056
MEAN_MOTION    = 14.86461682
ECCENTRICITY   = .00202993
INCLINATION    = 82.5305
RA_OF_ASC_NODE = 1.6570
ARG_OF_PERICENTER = 108.7837
MEAN_ANOMALY   = 251.5584

EPHEMERIS_TYPE = 0
CLASSIFICATION_TYPE = U
NORAD_CAT_ID   = 15945
ELEMENT_SET_NO = 999
REV_AT_EPOCH   = 17651
BSTAR          = .86372053E-4
MEAN_MOTION_DOT = .79E-5
MEAN_MOTION_DDOT = 0

CCSDS_OMM_VERS = 2.0
CREATION_DATE  = 
ORIGINATOR     = 

OBJECT_NAME    = SL-16 R/B
OBJECT_ID      = 1985-097B
CENTER_NAME    = EARTH
REF_FRAME      = TEME
TIME_SYSTEM    = UTC
MEAN_ELEMENT_THEORY = SGP/SGP4

EPOCH          = 2026-04-03T10:15:41.584032
MEAN_MOTION    = 14.16602795
ECCENTRICITY   = .00092493
INCLINATION    = 71.0008
RA_OF_ASC_NODE = 88.4708
ARG_OF_PERICENTER = 230.3542
MEAN_ANOMALY   = 236.6309

EPHEMERIS_TYPE = 0
CLASSIFICATION_TYPE = U
NORAD_CAT_ID   = 16182
ELEMENT_SET_NO = 999
REV_AT_EPOCH   = 9073
BSTAR          = -.58111282E-4
MEAN_MOTION_DOT = -.164E-5
MEAN_MOTION_DDOT = 0

CCSDS_OMM_VERS = 2.0
CREATION_DATE  = 
ORIGINATOR     = 

OBJECT_NAME    = SL-14 R/B
OBJECT_ID      = 1986-006B
CENTER_NAME    = EARTH
REF_FRAME      = TEME
TIME_SYSTEM    = UTC
MEAN_ELEMENT_THEORY = SGP/SGP4

EPOCH          = 2026-04-03T10:06:17.868096
MEAN_MOTION    = 14.86860461
ECCENTRICITY   = .00762358
INCLINATION    = 82.5260
RA_OF_ASC_NODE = 236.4566
ARG_OF_PERICENTER = 189.6315
MEAN_ANOMALY   = 170.3447

EPHEMERIS_TYPE = 0
CLASSIFICATION_TYPE = U
NORAD_CAT_ID   = 16496
ELEMENT_SET_NO = 999
REV_AT_EPOCH   = 15288
BSTAR          = .15744215E-3
MEAN_MOTION_DOT = .1507E-4
MEAN_MOTION_DDOT = 0

CCSDS_OMM_VERS = 2.0
CREATION_DATE  = 
ORIGINATOR     = 

OBJECT_NAME    = COSMOS 1743
OBJECT_ID      = 1986-034A
CENTER_NAME    = EARTH
REF_FRAME      = TEME
TIME_SYSTEM    = UTC
MEAN_ELEMENT_THEORY = SGP/SGP4

EPOCH          = 2026-04-03T14:25:57.479808
MEAN_MOTION    = 15.60822742
ECCENTRICITY   = .00055255
INCLINATION    = 82.5321
RA_OF_ASC_NODE = 47.6439
ARG_OF_PERICENTER = 157.3540
MEAN_ANOMALY   = 202.7962

EPHEMERIS_TYPE = 0
CLASSIFICATION_TYPE = U
NORAD_CAT_ID   = 16719
ELEMENT_SET_NO = 999
REV_AT_EPOCH   = 18413
BSTAR          = .83159428E-3
MEAN_MOTION_DOT = .69823E-3
MEAN_MOTION_DDOT = 0

