{"fetched_at":"2026-04-04T02:03:33Z","count":15623,"tles":[{"name":"SL-14 R/B","line1":"1 13553U 82092B   26093.55666280  .00000716  00000+0  77610-4 0  9994","line2":"2 13553  82.5651 118.1350 0019393 215.0194 259.5108 14.86690469332621","category":"Other"},{"name":"SL-8 R/B","line1":"1 15483U 85006B   26093.62728209  .00000483  00000+0  16855-3 0  9998","line2":"2 15483  74.0460 215.2591 0017480 125.6209 245.8835 14.37802324157613","category":"Other"},{"name":"SL-16 R/B","line1":"1 16182U 85097B   26093.42756463 -.00000164  00000+0 -58111-4 0  9996","line2":"2 16182  71.0008  88.4708 0009249 230.3542 236.6309 14.16602795 90733","category":"Other"},{"name":"SL-3 R/B","line1":"1 14208U 83075B   26093.59420519  .00017764  00000+0  45716-3 0  9993","line2":"2 14208  97.6134  99.1257 0022770 137.0234 223.2795 15.39039740333985","category":"Other"},{"name":"SL-12 R/B(2)","line1":"1 15772U 85042D   26093.61823940  .00000245  00000+0  13142-3 0  9998","line2":"2 15772  71.1099  35.0595 0032835  86.7279  85.6041 14.21990140117934","category":"Other"},{"name":"COSMOS 1536","line1":"1 14699U 84013A   26093.47344886  .00011335  00000+0  46277-3 0  9990","line2":"2 14699  82.5419  83.2004 0013971 187.2704 172.8333 15.24186980276395","category":"Other"},{"name":"SL-14 R/B","line1":"1 14820U 84027B   26093.60778254  .00000894  00000+0  99424-4 0  9997","line2":"2 14820  82.5426 221.6419 0016597 249.2580 110.6858 14.86005635251338","category":"Other"},{"name":"SL-14 R/B","line1":"1 16496U 86006B   26093.42104014  .00001507  00000+0  15744-3 0  9998","line2":"2 16496  82.5260 236.4566 0076235 189.6315 170.3447 14.86860461152883","category":"Other"},{"name":"SL-3 R/B","line1":"1 13819U 83010B   26093.40823738  .00024125  00000+0  47092-3 0  9997","line2":"2 13819  81.1036 331.9260 0015494 325.1669  34.8560 15.47213941361768","category":"Other"},{"name":"SL-3 R/B","line1":"1 13403U 82079B   26093.60083420  .00009921  00000+0  39118-3 0  9995","line2":"2 13403  81.1476 163.6618 0025450  83.1282 277.2846 15.25140832381493","category":"Other"},{"name":"COSMOS 1743","line1":"1 16719U 86034A   26093.60135972  .00069823  00000+0  83159-3 0  9994","line2":"2 16719  82.5321  47.6439 0005525 157.3540 202.7962 15.60822742184134","category":"Other"},{"name":"SL-14 R/B","line1":"1 15945U 85069B   26093.45033779  .00000790  00000+0  86372-4 0  9995","line2":"2 15945  82.5305   1.6570 0020299 108.7837 251.5584 14.86461682176510","category":"Other"}]}